NORAD_CAT_ID,OBJECT_NAME,OBJECT_TYPE,EPOCH,MEAN_MOTION,ECCENTRICITY,INCLINATION,RA_OF_ASC_NODE,ARG_OF_PERICENTER,MEAN_ANOMALY,BSTAR,MEAN_MOTION_DOT,MEAN_MOTION_DDOT,TLE_LINE0,TLE_LINE1,TLE_LINE2,SEMIMAJOR_AXIS,PERIOD,APOGEE,PERIGEE,DECAYED
52663.0,STARLINK-4037,PAYLOAD,2024-01-04 14:14:16,15.08836507,0.0001354,53.2164,123.4481,92.9474,267.1673,0.0001026,1.345e-05,0.0,0 STARLINK-4037,1 52663U 22053H   24004.59324556  .00001345  00000-0  10260-3 0  9998,2 52663  53.2164 123.4481 0001354  92.9474 267.1673 15.08836507 91012,6917.891,95.438,540.693,538.819,0.0
52663.0,STARLINK-4037,PAYLOAD,2024-01-05 12:29:40,15.08840518,0.0001514,53.2165,119.285,83.3277,276.7888,9.6849e-06,-1.34e-06,0.0,0 STARLINK-4037,1 52663U 22053H   24005.52060726 -.00000134  00000-0  96849-5 0  9993,2 52663  53.2165 119.2850 0001514  83.3277 276.7888 15.08840518 91155,6917.879,95.438,540.791,538.696,0.0
52663.0,STARLINK-4037,PAYLOAD,2024-01-05 14:05:03,15.08840573,0.0001505,53.2167,118.9877,82.658,277.4583,1.0068e-05,-1.28e-06,0.0,0 STARLINK-4037,1 52663U 22053H   24005.58684722 -.00000128  00000-0  10068-4 0  9998,2 52663  53.2167 118.9877 0001505  82.6580 277.4583 15.08840573 91163,6917.879,95.438,540.785,538.702,0.0
52663.0,STARLINK-4037,PAYLOAD,2024-01-06 12:20:27,15.08836577,0.00016,53.2179,114.8251,103.7613,256.3558,-9.3275e-06,-4.36e-06,0.0,0 STARLINK-4037,1 52663U 22053H   24006.51421021 -.00000436  00000-0 -93275-5 0  9998,2 52663  53.2179 114.8251 0001600 103.7613 256.3558 15.08836577 91308,6917.891,95.438,540.863,538.649,0.0
52663.0,STARLINK-4037,PAYLOAD,2024-01-06 17:06:36,15.08839884,0.0001474,53.2172,113.9314,96.8697,263.2463,4.2807e-06,-2.2e-06,0.0,0 STARLINK-4037,1 52663U 22053H   24006.71292798 -.00000220  00000-0  42807-5 0  9992,2 52663  53.2172 113.9314 0001474  96.8697 263.2463 15.08839884 91333,6917.881,95.438,540.765,538.726,0.0
52663.0,STARLINK-4037,PAYLOAD,2024-01-07 13:46:37,15.0884211,0.0001453,53.2174,110.0639,91.4443,268.6716,3.9103e-05,3.34e-06,0.0,0 STARLINK-4037,1 52663U 22053H   24007.57404732  .00000334  00000-0  39103-4 0  9999,2 52663  53.2174 110.0639 0001453  91.4443 268.6716 15.08842110 91460,6917.874,95.437,540.744,538.734,0.0
52663.0,STARLINK-4037,PAYLOAD,2024-01-08 12:02:01,15.08837115,0.0001493,53.2177,105.9002,90.0354,270.0809,4.8393e-05,4.82e-06,0.0,0 STARLINK-4037,1 52663U 22053H   24008.50141099  .00000482  00000-0  48393-4 0  9992,2 52663  53.2177 105.9002 0001493  90.0354 270.0809 15.08837115 91605,6917.889,95.438,540.787,538.721,0.0
52663.0,STARLINK-4037,PAYLOAD,2024-01-09 13:28:11,15.0884507,0.000147,53.2175,101.1455,82.0153,278.1006,4.6344e-05,4.5e-06,0.0,0 STARLINK-4037,1 52663U 22053H   24009.56124851  .00000450  00000-0  46344-4 0  9995,2 52663  53.2175 101.1455 0001470  82.0153 278.1006 15.08845070 91760,6917.865,95.437,540.747,538.713,0.0
52663.0,STARLINK-4037,PAYLOAD,2024-01-09 15:03:34,15.08847866,0.0001498,53.2178,100.8469,89.803,270.3133,6.8318e-05,8e-06,0.0,0 STARLINK-4037,1 52663U 22053H   24009.62748542  .00000800  00000-0  68318-4 0  9995,2 52663  53.2178 100.8469 0001498  89.8030 270.3133 15.08847866 91774,6917.856,95.437,540.758,538.685,0.0
52663.0,STARLINK-4037,PAYLOAD,2024-01-10 10:08:13,15.08835323,0.0001721,53.2189,97.2746,85.0001,275.1187,7.0222e-06,-1.76e-06,0.0,0 STARLINK-4037,1 52663U 22053H   24010.42237580 -.00000176  00000-0  70222-5 0  9995,2 52663  53.2189  97.2746 0001721  85.0001 275.1187 15.08835323 91898,6917.895,95.438,540.95,538.569,0.0
52663.0,STARLINK-4037,PAYLOAD,2024-01-11 11:34:22,15.08847684,0.0001908,53.2184,92.5235,69.4148,290.7049,3.1253e-05,2.09e-06,0.0,0 STARLINK-4037,1 52663U 22053H   24011.48220852  .00000209  00000-0  31253-4 0  9992,2 52663  53.2184  92.5235 0001908  69.4148 290.7049 15.08847684 92051,6917.857,95.437,541.042,538.402,0.0
52663.0,STARLINK-4037,PAYLOAD,2024-01-12 11:25:11,15.08831514,0.0001593,53.2176,88.0627,128.2906,231.823,-0.0001241,-2.262e-05,0.0,0 STARLINK-4037,1 52663U 22053H   24012.47582257 -.00002262  00000-0 -12410-3 0  9998,2 52663  53.2176  88.0627 0001593 128.2906 231.8230 15.08831514 92203,6917.906,95.438,540.873,538.669,0.0
52663.0,STARLINK-4037,PAYLOAD,2024-01-13 11:15:57,15.08850295,0.0002131,53.2177,83.5977,64.8138,295.3075,0.00012396,1.686e-05,0.0,0 STARLINK-4037,1 52663U 22053H   24013.46941322  .00001686  00000-0  12396-3 0  9990,2 52663  53.2177  83.5977 0002131  64.8138 295.3075 15.08850295 92358,6917.849,95.437,541.188,538.24,0.0
52663.0,STARLINK-4037,PAYLOAD,2024-01-14 04:45:12,15.0882877,0.0001697,53.218,80.334,80.394,279.7244,0.00028659,4.275e-05,0.0,0 STARLINK-4037,1 52663U 22053H   24014.19805901  .00004275  00000-0  28659-3 0  9999,2 52663  53.2180  80.3340 0001697  80.3940 279.7244 15.08828770 92460,6917.915,95.438,540.954,538.606,0.0
52663.0,STARLINK-4037,PAYLOAD,2024-01-14 11:06:44,15.08832092,0.00017,53.218,79.1439,92.9,267.2187,0.00026774,3.975e-05,0.0,0 STARLINK-4037,1 52663U 22053H   24014.46301907  .00003975  00000-0  26774-3 0  9998,2 52663  53.2180  79.1439 0001700  92.9000 267.2187 15.08832092 92501,6917.905,95.438,540.946,538.594,0.0
52663.0,STARLINK-4037,PAYLOAD,2024-01-15 10:57:31,15.0885174,0.0001794,53.2184,74.6803,107.0726,253.0463,2.1361e-05,5.2e-07,0.0,0 STARLINK-4037,1 52663U 22053H   24015.45661387  .00000052  00000-0  21361-4 0  9990,2 52663  53.2184  74.6803 0001794 107.0726 253.0463 15.08851740 92653,6917.845,95.437,540.951,538.468,0.0
52663.0,STARLINK-4037,PAYLOAD,2024-01-16 02:51:23,15.08840054,0.0001904,53.2189,71.7064,114.3788,245.7403,-5.7984e-05,-1.211e-05,0.0,0 STARLINK-4037,1 52663U 22053H   24016.11902362 -.00001211  00000-0 -57984-4 0  9995,2 52663  53.2189  71.7064 0001904 114.3788 245.7403 15.08840054 92756,6917.88,95.438,541.062,538.428,0.0
52663.0,STARLINK-4037,PAYLOAD,2024-01-16 10:48:19,15.08838141,0.0001618,53.2186,70.2178,98.2705,261.8471,-7.4019e-05,-1.466e-05,0.0,0 STARLINK-4037,1 52663U 22053H   24016.45022572 -.00001466  00000-0 -74019-4 0  9998,2 52663  53.2186  70.2178 0001618  98.2705 261.8471 15.08838141 92808,6917.886,95.438,540.87,538.632,0.0
52663.0,STARLINK-4037,PAYLOAD,2024-01-16 13:59:05,15.08843229,0.0001717,53.2183,69.6223,77.2769,282.8415,-9.4392e-06,-4.38e-06,0.0,0 STARLINK-4037,1 52663U 22053H   24016.58270159 -.00000438  00000-0 -94392-5 0  9993,2 52663  53.2183  69.6223 0001717  77.2769 282.8415 15.08843229 92821,6917.871,95.437,540.923,538.548,0.0
52663.0,STARLINK-4037,PAYLOAD,2024-01-17 10:39:06,15.08842461,0.0001855,53.2189,65.7559,90.2755,269.845,-2.2294e-05,-6.43e-06,0.0,0 STARLINK-4037,1 52663U 22053H   24017.44382492 -.00000643  00000-0 -22294-4 0  9992,2 52663  53.2189  65.7559 0001855  90.2755 269.8450 15.08842461 92954,6917.873,95.437,541.021,538.455,0.0
52663.0,STARLINK-4037,PAYLOAD,2024-01-18 12:05:15,15.08845956,0.0001673,53.2185,61.0008,85.5429,274.5755,0.00017403,2.483e-05,0.0,0 STARLINK-4037,1 52663U 22053H   24018.50365695  .00002483  00000-0  17403-3 0  9993,2 52663  53.2185  61.0008 0001673  85.5429 274.5755 15.08845956 93113,6917.862,95.437,540.885,538.57,0.0
52663.0,STARLINK-4037,PAYLOAD,2024-01-19 02:23:45,15.08832731,0.0002098,53.219,58.3261,83.0029,277.1201,2.4493e-05,1.02e-06,0.0,0 STARLINK-4037,1 52663U 22053H   24019.09983441  .00000102  00000-0  24493-4 0  9997,2 52663  53.2190  58.3261 0002098  83.0029 277.1201 15.08832731 93202,6917.903,95.438,541.219,538.316,0.0
52663.0,STARLINK-4037,PAYLOAD,2024-01-19 08:45:17,15.08839861,0.0001776,53.2181,57.1361,94.853,265.2665,-3.7013e-05,-8.77e-06,0.0,0 STARLINK-4037,1 52663U 22053H   24019.36478998 -.00000877  00000-0 -37013-4 0  9996,2 52663  53.2181  57.1361 0001776  94.8530 265.2665 15.08839861 93246,6917.881,95.438,540.974,538.517,0.0
52663.0,STARLINK-4037,PAYLOAD,2024-01-20 08:36:04,15.08845768,0.0001779,53.2188,52.6749,111.4701,248.6481,3.0306e-05,1.94e-06,0.0,0 STARLINK-4037,1 52663U 22053H   24020.35838278  .00000194  00000-0  30306-4 0  9996,2 52663  53.2188  52.6749 0001779 111.4701 248.6481 15.08845768 93392,6917.863,95.437,540.958,538.497,0.0
52663.0,STARLINK-4037,PAYLOAD,2024-01-21 06:51:28,15.08841231,0.0001819,53.219,48.5111,102.2724,257.8472,4.5361e-05,4.34e-06,0.0,0 STARLINK-4037,1 52663U 22053H   24021.28574656  .00000434  00000-0  45361-4 0  9990,2 52663  53.2190  48.5111 0001819 102.2724 257.8472 15.08841231 93539,6917.877,95.437,541.0,538.483,0.0
52663.0,STARLINK-4037,PAYLOAD,2024-01-22 06:42:15,15.08839064,0.0001773,53.2187,44.051,99.2334,260.8859,1.3403e-05,-7.5e-07,0.0,0 STARLINK-4037,1 52663U 22053H   24022.27934946 -.00000075  00000-0  13403-4 0  9996,2 52663  53.2187  44.0510 0001773  99.2334 260.8859 15.08839064 93680,6917.883,95.438,540.975,538.522,0.0
52663.0,STARLINK-4037,PAYLOAD,2024-01-22 08:17:38,15.08839919,0.0001792,53.2189,43.754,99.5558,260.5637,2.0072e-05,3.1e-07,0.0,0 STARLINK-4037,1 52663U 22053H   24022.34558873  .00000031  00000-0  20072-4 0  9996,2 52663  53.2189  43.7540 0001792  99.5558 260.5637 15.08839919 93694,6917.881,95.438,540.985,538.506,0.0
52663.0,STARLINK-4037,PAYLOAD,2024-01-23 06:33:02,15.08836765,0.0001794,53.219,39.5903,102.5125,257.6068,4.4626e-05,4.22e-06,0.0,0 STARLINK-4037,1 52663U 22053H   24023.27295051  .00000422  00000-0  44626-4 0  9990,2 52663  53.2190  39.5903 0001794 102.5125 257.6068 15.08836765 93836,6917.89,95.438,540.996,538.514,0.0
52663.0,STARLINK-4037,PAYLOAD,2024-01-24 07:59:13,15.0883883,0.000169,53.2191,34.8354,94.0891,266.0295,3.6663e-05,2.95e-06,0.0,0 STARLINK-4037,1 52663U 22053H   24024.33279317  .00000295  00000-0  36663-4 0  9995,2 52663  53.2191  34.8354 0001690  94.0891 266.0295 15.08838830 93993,6917.884,95.438,540.918,538.58,0.0
52663.0,STARLINK-4037,PAYLOAD,2024-01-25 07:50:00,15.08844579,0.0001587,53.2183,30.3749,85.5567,274.5607,0.00011204,1.496e-05,0.0,0 STARLINK-4037,1 52663U 22053H   24025.32638907  .00001496  00000-0  11204-3 0  9996,2 52663  53.2183  30.3749 0001587  85.5567 274.5607 15.08844579 94149,6917.866,95.437,540.829,538.634,0.0
